{
  "type": "FeatureCollection",
  "features": [
    {
      "type": "Feature",
      "properties": {
        "name": "Shanghai (simplified demo)"
      },
      "geometry": {
        "type": "Polygon",
        "coordinates": [
          [
            [121.0, 31.8],
            [121.3, 31.9],
            [121.7, 31.8],
            [121.9, 31.6],
            [121.9, 31.3],
            [121.7, 31.1],
            [121.4, 31.0],
            [121.1, 31.1],
            [120.98, 31.3],
            [120.96, 31.5],
            [121.0, 31.8]
          ]
        ]
      }
    }
  ]
}


