{
  "type": "FeatureCollection",
  "features": [
    {
      "type": "Feature",
      "properties": {
        "name": "New York (simplified demo)"
      },
      "geometry": {
        "type": "Polygon",
        "coordinates": [
          [
            [-74.4, 41.0],
            [-74.1, 41.1],
            [-73.8, 40.95],
            [-73.7, 40.8],
            [-73.7, 40.6],
            [-73.85, 40.5],
            [-74.1, 40.5],
            [-74.25, 40.6],
            [-74.35, 40.75],
            [-74.4, 41.0]
          ]
        ]
      }
    }
  ]
}


