{
  "type": "FeatureCollection",
  "features": [
    {
      "type": "Feature",
      "properties": {
        "name": "London (simplified demo)"
      },
      "geometry": {
        "type": "Polygon",
        "coordinates": [
          [
            [-0.6, 51.75],
            [-0.3, 51.8],
            [-0.05, 51.75],
            [0.2, 51.6],
            [0.25, 51.45],
            [0.1, 51.35],
            [-0.2, 51.3],
            [-0.45, 51.35],
            [-0.55, 51.5],
            [-0.6, 51.65],
            [-0.6, 51.75]
          ]
        ]
      }
    }
  ]
}


