{
  "type": "FeatureCollection",
  "features": [
    {
      "type": "Feature",
      "properties": {
        "name": "Beijing (simplified demo)"
      },
      "geometry": {
        "type": "Polygon",
        "coordinates": [
          [
            [115.9, 40.8],
            [116.4, 40.9],
            [116.9, 40.7],
            [117.2, 40.4],
            [117.5, 40.0],
            [117.2, 39.8],
            [116.8, 39.7],
            [116.4, 39.6],
            [116.0, 39.6],
            [115.8, 39.9],
            [115.7, 40.2],
            [115.8, 40.5],
            [115.9, 40.8]
          ]
        ]
      }
    }
  ]
}


